TEN-KOH                 
1 43677U 18084G   23138.39040271  .00002243  00000+0  22184-3 0  9991
2 43677  98.0085 277.7436 0014040 244.3701 115.6068 14.92877920247611
DIWATA-2B               
1 43678U 18084H   23138.50624311  .00001054  00000+0  10630-3 0  9990
2 43678  98.0187 281.8871 0008259 258.0475 101.9818 14.93332133247837
STARS-AO                
1 43679U 18084J   23138.38589722  .00002803  00000+0  25158-3 0  9997
2 43679  98.0191 284.8678 0007274 260.5137  99.5262 14.96576461247977
AUTCUBE 2               
1 43681U 18084K   23138.39230844  .00002556  00000+0  23719-3 0  9995
2 43681  98.0154 282.9127 0007744 254.4349 105.6017 14.95333782247856
METOP-C                 
1 43689U 18087A   23138.41831317  .00000127  00000+0  77886-4 0  9998
2 43689  98.6847 198.4085 0003740 135.2516 224.8963 14.21504674234890
ES'HAIL 2               
1 43700U 18090A   23137.68715909  .00000143  00000+0  00000+0 0  9999
2 43700   0.0147 288.4231 0001476 162.7410  57.1413  1.00274018 16387
FACSAT-1                
1 43721U 18096C   23136.91033641  .00442923  77319-4  13586-2 0  9993
2 43721  97.3037 227.2212 0011385 252.8701 198.5140 15.91739928249602
REAKTOR HELLO WORLD     
1 43743U 18096AA  23138.10769841  .00046271  00000+0  68958-3 0  9996
2 43743  97.3182 224.3600 0008962 282.0297  77.9953 15.54922801249490
ELYSIUM STAR 2 & LFF    
1 43760U 18099C   23137.75424309  .00009107  00000+0  63413-3 0  9993
2 43760  97.5680 204.2117 0009144 196.5139 163.5791 15.05640975243278
2018-099D               
1 43761U 18099D   23138.13406562  .00002024  00000+0  17859-3 0  9992
2 43761  97.5763 200.3259 0012417 220.0999 139.9308 14.97440660243077
AISTECHSAT 2            
1 43768U 18099L   23138.12059559  .00003820  00000+0  32638-3 0  9995
2 43768  97.5704 198.7279 0009447 214.3159 145.7455 14.98197226242743
FOX-1CLIFF (AO-95)      
1 43770U 18099N   23137.93381179  .00004168  00000+0  34328-3 0  9996
2 43770  97.5778 200.2879 0010643 225.8490 134.1859 14.99567633243078
RANGE-A                 
1 43772U 18099Q   23137.90587636  .00005294  00000+0  41695-3 0  9997
2 43772  97.5820 202.9287 0007784 191.9207 168.1834 15.01189714243121
RANGE-B                 
1 43773U 18099R   23137.88373242  .00002331  00000+0  20058-3 0  9990
2 43773  97.5653 198.4171 0012022 216.7100 143.3300 14.98275418243020
2018-099T               
1 43775U 18099T   23137.90893989  .00002602  00000+0  22533-3 0  9991
2 43775  97.5734 199.9398 0013141 218.4963 141.5324 14.97926172243034
MOVE-II                 
1 43780U 18099Y   23137.75475135  .00006209  00000+0  46327-3 0  9993
2 43780  97.5728 202.4374 0007465 249.6051 110.4373 15.03182602243166
SNUSAT-2                
1 43782U 18099AA  23137.89676150  .00003353  00000+0  27785-3 0  9994
2 43782  97.5727 200.7710 0012297 215.4381 144.6026 14.99453734243095
SNUGLITE                
1 43784U 18099AC  23138.12612809  .00004805  00000+0  39018-3 0  9999
2 43784  97.5739 200.6341 0010232 211.5313 148.5299 15.00041433243163
ITASAT 1                
1 43786U 18099AE  23138.13007305  .00004092  00000+0  33958-3 0  9996
2 43786  97.5794 201.5112 0012291 213.5394 146.5053 14.99273892243147
KAZSCISAT-1             
1 43787U 18099AF  23137.90562705  .00006787  00000+0  51069-3 0  9997
2 43787  97.5599 201.0442 0007548 213.3421 146.7330 15.02826533243220
EAGLET-I                
1 43790U 18099AJ  23138.43051728  .00002279  00000+0  19314-3 0  9997
2 43790  97.5758 202.2968 0012311 224.0847 135.9395 14.98893338242920
ESEO                    
1 43792U 18099AL  23137.89282821  .00001293  00000+0  11562-3 0  9990
2 43792  97.5707 200.3331 0012022 223.2679 136.7600 14.97515061242855
CSIM-FD                 
1 43793U 18099AM  23137.92573593  .00007555  00000+0  55480-3 0  9998
2 43793  97.5791 203.8826 0015704 224.6963 135.2998 15.03638116243037
ASTROCAST 0.1           
1 43798U 18099AS  23137.90299589  .00006470  00000+0  49558-3 0  9995
2 43798  97.5898 203.2468 0012697 192.8850 167.2052 15.02129662243222
JY1SAT (JO-97)          
1 43803U 18099AX  23138.10999558  .00004455  00000+0  35772-3 0  9992
2 43803  97.5698 201.4591 0012062 195.9406 164.1440 15.00497682243181
SUOMI-100               
1 43804U 18099AY  23138.36653210  .00003754  00000+0  30431-3 0  9991
2 43804  97.5689 201.5372 0016289 211.8167 148.2074 15.00181349243228
AL-FARABI 2             
1 43805U 18099AZ  23138.14211110  .00005396  00000+0  41820-3 0  9995
2 43805  97.5570 202.3086 0011395 197.4958 162.5876 15.01769028243247
CENTAURI-1              
1 43809U 18099BD  23138.12293850  .00003757  00000+0  31316-3 0  9996
2 43809  97.5746 201.3879 0013014 213.9598 146.0793 14.99144015242860
CHOMPTT                 
1 43855U 18104G   23137.62611414  .00017606  00000+0  45170-3 0  9999
2 43855  85.0323 186.9224 0014718  81.4732 278.8187 15.39092609245877
UWE-4                   
1 43880U 18111E   23138.37858236  .00003634  00000+0  28225-3 0  9991
2 43880  97.6369  44.0367 0015195 274.3762  85.5727 15.01871174237899
ZACUBE-2                
1 43907U 18111AH  23138.50457084  .00018974  00000+0  48909-3 0  9996
2 43907  97.1433  18.8377 0013506 328.6430  31.4009 15.39141443244582
MICRODRAGON             
1 43935U 19003D   23137.86172283  .00013628  00000+0  42150-3 0  9994
2 43935  97.1052 158.5716 0016056  67.8661 292.4285 15.33478937240788
M6P                     
1 44109U 19018AF  23138.49208102  .00122660  00000+0  79910-3 0  9995
2 44109  97.3679 235.8434 0019340 333.0563  26.9696 15.75284601231351
FORMOSAT 7-4            
1 44350U 19036M   23137.96028075  .00005959  00000+0  31744-3 0  9997
2 44350  23.9995 236.9229 0003907  11.9140 348.1456 15.12021855214191
METEOR-M2 2             
1 44387U 19038A   23138.51540445  .00000024  00000+0  30156-4 0  9996
2 44387  98.7739 102.4836 0002116  53.6626 306.4748 14.23780955201080
VDNH-80                 
1 44392U 19038G   23138.51583222  .00017505  00000+0  63471-3 0  9999
2 44392  97.6713 118.8556 0017190  54.5152 305.7688 15.28278974213782
D-STAR ONE (LIGHTSAT)   
1 44393U 19038H   23138.47951615  .00017950  00000+0  63878-3 0  9995
2 44393  97.6721 118.8608 0017287  55.0249 305.2610 15.28885552213977
AMGU-1 (AMURSAT)        
1 44394U 19038J   23138.47353780  .00021014  00000+0  71241-3 0  9994
2 44394  97.6696 119.0737 0016823  55.0077 305.2739 15.30438768213999
DOT-1                   
1 44399U 19038P   23137.91196013  .00010224  00000+0  44437-3 0  9999
2 44399  97.6803 115.4775 0021768  65.1057 295.2438 15.22270393213678
SOKRAT                  
1 44404U 19038U   23138.46549040  .00019606  00000+0  67523-3 0  9993
2 44404  97.6707 118.5860 0017174  56.6688 303.6193 15.29937114213960
LUCKY-7                 
1 44406U 19038W   23138.49939842  .00011269  00000+0  47492-3 0  9991
2 44406  97.6785 116.7165 0021047  55.0582 305.2627 15.23303765213802
D-STAR ONE (EXOCONNECT) 
1 44410U 19038AA  23138.49841269  .00052955  00000+0  11503-2 0  9991
2 44410  97.6601 122.3049 0012678  52.7444 307.4958 15.44101584214247
NARSSCUBE-2             
1 44415U 19022E   23138.11840873  .00022692  00000+0  44656-3 0  9999
2 44415  51.6359 286.8652 0009624 197.5188 162.5469 15.47111455211658
DUCHIFAT-3              
1 44854U 19089C   23138.50468257  .00006399  00000+0  43752-3 0  9996
2 44854  36.9623 268.6228 0008311  72.1757 287.9892 15.05821041188360
OPS-SAT                 
1 44878U 19092F   23138.05322221  .00018597  00000+0  58158-3 0  9995
2 44878  97.4759 326.4450 0008657 236.0207 124.0212 15.33159970189175
FLORIPASAT-1            
1 44885U 19093G   23138.44500745  .00003209  00000+0  37648-3 0  9991
2 44885  97.8682 219.9416 0014144 172.2354 187.9083 14.85586412184532
BY70-2                  
1 45857U 20042B   23138.52628479  .00013547  00000+0  14279-2 0  9991
2 45857  97.9262 218.3477 0010496 109.8190 250.4159 14.89412429155120
SALSAT                  
1 46495U 20068K   23137.85514092  .00003655  00000+0  24475-3 0  9997
2 46495  97.7688  85.5473 0014382 217.8368 142.1850 15.07479687144509
NETSAT-4                
1 46504U 20068U   23137.84267099  .00004898  00000+0  32874-3 0  9991
2 46504  97.7618  83.3794 0009007 273.3821  86.6376 15.07267647144331
NETSAT-3                
1 46505U 20068V   23137.80631146  .00005202  00000+0  35039-3 0  9992
2 46505  97.7588  83.1805 0008515 283.8209  76.2071 15.07107950144335
NETSAT-1                
1 46506U 20068W   23137.84376924  .00004150  00000+0  28243-3 0  9997
2 46506  97.7610  83.1071 0006746 297.5664  62.4877 15.06853916144338
NETSAT-2                
1 46507U 20068X   23137.83928320  .00004857  00000+0  32682-3 0  9996
2 46507  97.7607  83.1285 0006095 307.5572  52.5101 15.07195777144288
UVSQ-SAT                
1 47438U 21006AB  23137.89276670  .00011703  00000+0  49199-3 0  9992
2 47438  97.3871 195.4518 0010497 179.6765 180.4481 15.23519630128033
SOMP2B                  
1 47445U 21006AJ  23138.39266352  .00010471  00000+0  44972-3 0  9997
2 47445  97.3834 195.2412 0010204 182.7546 177.3637 15.22826170128081
DIY-1 (ARDUIQUBE)       
1 47963U 21022AH  23138.22669771  .00131369  00000+0  22318-2 0  9993
2 47963  97.5001  45.3776 0011058  74.8350 285.4124 15.50921343117937
CAS-5A                  
1 54684U 22167C   23138.52748410  .00009291  00000+0  52260-3 0  9991
2 54684  97.5582 276.3305 0014633  80.1535 280.1347 15.13396588 24190
